{"fetched_at":"2026-03-29T02:12:04Z","count":15717,"tles":[{"name":"STARLINK-2195","line1":"1 47772U 21017BC  26087.52235495 -.00003567  00000+0 -10838-3 0  9991","line2":"2 47772  53.1602 129.8010 0001343  87.7217 272.3937 15.30194326280546","category":"Starlink"}]}